{"type": "FeatureCollection", "features": [{"type": "Feature", "properties": {"name": "Upper Big Creek", "kind": "placer", "milo": 5, "claims": 8, "geology": 33}, "geometry": {"type": "Polygon", "coordinates": [[[-118.848, 44.745], [-118.722, 44.745], [-118.722, 44.835], [-118.848, 44.835], [-118.848, 44.745]]]}}, {"type": "Feature", "properties": {"name": "Ochoco Creek", "kind": "placer", "milo": 38, "claims": 9, "geology": 84}, "geometry": {"type": "Polygon", "coordinates": [[[-120.503, 44.335], [-120.269, 44.335], [-120.269, 44.485], [-120.503, 44.485], [-120.503, 44.335]]]}}, {"type": "Feature", "properties": {"name": "Dixie / Quartzburg", "kind": "placer", "milo": 120, "claims": 18, "geology": 205}, "geometry": {"type": "Polygon", "coordinates": [[[-118.763, 44.465], [-118.507, 44.465], [-118.507, 44.643], [-118.763, 44.643], [-118.763, 44.465]]]}}, {"type": "Feature", "properties": {"name": "Fox / Mine Creek", "kind": "placer", "milo": 6, "claims": 2, "geology": 38}, "geometry": {"type": "Polygon", "coordinates": [[[-119.231, 44.5], [-119.097, 44.5], [-119.097, 44.623], [-119.231, 44.623], [-119.231, 44.5]]]}}, {"type": "Feature", "properties": {"name": "Elk Creek", "kind": "placer", "milo": 55, "claims": 26, "geology": 110}, "geometry": {"type": "Polygon", "coordinates": [[[-118.863, 44.647], [-118.737, 44.647], [-118.737, 44.737], [-118.863, 44.737], [-118.863, 44.647]]]}}, {"type": "Feature", "properties": {"name": "Spanish Gulch", "kind": "placer", "milo": 20, "claims": 0, "geology": 112}, "geometry": {"type": "Polygon", "coordinates": [[[-119.833, 44.4], [-119.621, 44.4], [-119.621, 44.58], [-119.833, 44.58], [-119.833, 44.4]]]}}, {"type": "Feature", "properties": {"name": "Silvies / West Myrtle Butte", "kind": "sunstone", "milo": 0, "claims": 1, "geology": 112}, "geometry": {"type": "Polygon", "coordinates": [[[-119.233, 43.943], [-119.014, 43.943], [-119.014, 44.144], [-119.233, 44.144], [-119.233, 43.943]]]}}, {"type": "Feature", "properties": {"name": "NE Oregon", "kind": "sunstone", "milo": 0, "claims": 0, "geology": 134}, "geometry": {"type": "Polygon", "coordinates": [[[-117.65, 45.108], [-117.522, 45.108], [-117.522, 45.199], [-117.65, 45.199], [-117.65, 45.108]]]}}, {"type": "Feature", "properties": {"name": "Silvies west", "kind": "sunstone", "milo": 0, "claims": 0, "geology": 16}, "geometry": {"type": "Polygon", "coordinates": [[[-119.883, 44.155], [-119.717, 44.155], [-119.717, 44.275], [-119.883, 44.275], [-119.883, 44.155]]]}}, {"type": "Feature", "properties": {"name": "Warner", "kind": "sunstone", "milo": 1, "claims": 0, "geology": 28}, "geometry": {"type": "Polygon", "coordinates": [[[-120.073, 42.623], [-119.945, 42.623], [-119.945, 42.721], [-120.073, 42.721], [-120.073, 42.623]]]}}, {"type": "Feature", "properties": {"name": "Harney", "kind": "sunstone", "milo": 0, "claims": 0, "geology": 18}, "geometry": {"type": "Polygon", "coordinates": [[[-120.004, 43.086], [-119.88, 43.086], [-119.88, 43.176], [-120.004, 43.176], [-120.004, 43.086]]]}}, {"type": "Feature", "properties": {"name": "Ponderosa", "kind": "sunstone", "milo": 3, "claims": 11, "geology": 56}, "geometry": {"type": "Polygon", "coordinates": [[[-119.588, 43.811], [-119.364, 43.811], [-119.364, 43.964], [-119.588, 43.964], [-119.588, 43.811]]]}}, {"type": "Feature", "properties": {"name": "Silvies east", "kind": "sunstone", "milo": 0, "claims": 0, "geology": 19}, "geometry": {"type": "Polygon", "coordinates": [[[-118.905, 43.868], [-118.781, 43.868], [-118.781, 43.959], [-118.905, 43.959], [-118.905, 43.868]]]}}, {"type": "Feature", "properties": {"name": "Dust Devil", "kind": "sunstone", "milo": 11, "claims": 311, "geology": 26}, "geometry": {"type": "Polygon", "coordinates": [[[-119.927, 42.669], [-119.805, 42.669], [-119.805, 42.759], [-119.927, 42.759], [-119.927, 42.669]]]}}, {"type": "Feature", "properties": {"name": "Plush", "kind": "sunstone", "milo": 0, "claims": 12, "geology": 28}, "geometry": {"type": "Polygon", "coordinates": [[[-119.957, 42.779], [-119.834, 42.779], [-119.834, 42.87], [-119.957, 42.87], [-119.957, 42.779]]]}}]}