{"type": "FeatureCollection", "features": [{"type": "Feature", "properties": {"n": 2, "lode": 2, "acres_min": 20.7, "acres_max": 20.7, "acres_mid": 20.7}, "geometry": {"type": "Polygon", "coordinates": [[[-118.93, 44.73], [-118.92, 44.73], [-118.92, 44.74], [-118.93, 44.74], [-118.93, 44.73]]]}}, {"type": "Feature", "properties": {"n": 2, "lode": 2, "acres_min": 20.7, "acres_max": 20.7, "acres_mid": 20.7}, "geometry": {"type": "Polygon", "coordinates": [[[-118.93, 44.74], [-118.92, 44.74], [-118.92, 44.75], [-118.93, 44.75], [-118.93, 44.74]]]}}, {"type": "Feature", "properties": {"n": 2, "lode": 2, "acres_min": 20.7, "acres_max": 20.7, "acres_mid": 20.7}, "geometry": {"type": "Polygon", "coordinates": [[[-118.93, 44.75], [-118.92, 44.75], [-118.92, 44.76], [-118.93, 44.76], [-118.93, 44.75]]]}}, {"type": "Feature", "properties": {"n": 2, "lode": 2, "acres_min": 20.7, "acres_max": 20.7, "acres_mid": 20.7}, "geometry": {"type": "Polygon", "coordinates": [[[-118.92, 44.73], [-118.91, 44.73], [-118.91, 44.74], [-118.92, 44.74], [-118.92, 44.73]]]}}, {"type": "Feature", "properties": {"n": 2, "lode": 2, "acres_min": 20.7, "acres_max": 20.7, "acres_mid": 20.7}, "geometry": {"type": "Polygon", "coordinates": [[[-118.92, 44.74], [-118.91, 44.74], [-118.91, 44.75], [-118.92, 44.75], [-118.92, 44.74]]]}}, {"type": "Feature", "properties": {"n": 2, "lode": 2, "acres_min": 20.7, "acres_max": 20.7, "acres_mid": 20.7}, "geometry": {"type": "Polygon", "coordinates": [[[-118.92, 44.75], [-118.91, 44.75], [-118.91, 44.76], [-118.92, 44.76], [-118.92, 44.75]]]}}, {"type": "Feature", "properties": {"n": 2, "lode": 2, "acres_min": 20.7, "acres_max": 20.7, "acres_mid": 20.7}, "geometry": {"type": "Polygon", "coordinates": [[[-118.91, 44.73], [-118.9, 44.73], [-118.9, 44.74], [-118.91, 44.74], [-118.91, 44.73]]]}}, {"type": "Feature", "properties": {"n": 2, "lode": 2, "acres_min": 20.7, "acres_max": 20.7, "acres_mid": 20.7}, "geometry": {"type": "Polygon", "coordinates": [[[-118.91, 44.74], [-118.9, 44.74], [-118.9, 44.75], [-118.91, 44.75], [-118.91, 44.74]]]}}, {"type": "Feature", "properties": {"n": 2, "lode": 2, "acres_min": 20.7, "acres_max": 20.7, "acres_mid": 20.7}, "geometry": {"type": "Polygon", "coordinates": [[[-118.91, 44.75], [-118.9, 44.75], [-118.9, 44.76], [-118.91, 44.76], [-118.91, 44.75]]]}}, {"type": "Feature", "properties": {"n": 2, "lode": 2, "acres_min": 20.7, "acres_max": 20.7, "acres_mid": 20.7}, "geometry": {"type": "Polygon", "coordinates": [[[-118.9, 44.73], [-118.89, 44.73], [-118.89, 44.74], [-118.9, 44.74], [-118.9, 44.73]]]}}, {"type": "Feature", "properties": {"n": 2, "lode": 2, "acres_min": 20.7, "acres_max": 20.7, "acres_mid": 20.7}, "geometry": {"type": "Polygon", "coordinates": [[[-118.9, 44.74], [-118.89, 44.74], [-118.89, 44.75], [-118.9, 44.75], [-118.9, 44.74]]]}}, {"type": "Feature", "properties": {"n": 2, "lode": 2, "acres_min": 20.7, "acres_max": 20.7, "acres_mid": 20.7}, "geometry": {"type": "Polygon", "coordinates": [[[-118.9, 44.75], [-118.89, 44.75], [-118.89, 44.76], [-118.9, 44.76], [-118.9, 44.75]]]}}, {"type": "Feature", "properties": {"n": 2, "lode": 2, "acres_min": 20.7, "acres_max": 20.7, "acres_mid": 20.7}, "geometry": {"type": "Polygon", "coordinates": [[[-118.89, 44.73], [-118.88, 44.73], [-118.88, 44.74], [-118.89, 44.74], [-118.89, 44.73]]]}}, {"type": "Feature", "properties": {"n": 2, "lode": 2, "acres_min": 20.7, "acres_max": 20.7, "acres_mid": 20.7}, "geometry": {"type": "Polygon", "coordinates": [[[-118.89, 44.74], [-118.88, 44.74], [-118.88, 44.75], [-118.89, 44.75], [-118.89, 44.74]]]}}, {"type": "Feature", "properties": {"n": 2, "lode": 2, "acres_min": 20.7, "acres_max": 20.7, "acres_mid": 20.7}, "geometry": {"type": "Polygon", "coordinates": [[[-118.89, 44.75], [-118.88, 44.75], [-118.88, 44.76], [-118.89, 44.76], [-118.89, 44.75]]]}}, {"type": "Feature", "properties": {"n": 2, "lode": 2, "acres_min": 20.7, "acres_max": 20.7, "acres_mid": 20.7}, "geometry": {"type": "Polygon", "coordinates": [[[-118.88, 44.73], [-118.87, 44.73], [-118.87, 44.74], [-118.88, 44.74], [-118.88, 44.73]]]}}, {"type": "Feature", "properties": {"n": 2, "lode": 2, "acres_min": 20.7, "acres_max": 20.7, "acres_mid": 20.7}, "geometry": {"type": "Polygon", "coordinates": [[[-118.88, 44.74], [-118.87, 44.74], [-118.87, 44.75], [-118.88, 44.75], [-118.88, 44.74]]]}}, {"type": "Feature", "properties": {"n": 2, "lode": 2, "acres_min": 20.7, "acres_max": 20.7, "acres_mid": 20.7}, "geometry": {"type": "Polygon", "coordinates": [[[-118.88, 44.75], [-118.87, 44.75], [-118.87, 44.76], [-118.88, 44.76], [-118.88, 44.75]]]}}, {"type": "Feature", "properties": {"n": 2, "lode": 2, "acres_min": 20.7, "acres_max": 20.7, "acres_mid": 20.7}, "geometry": {"type": "Polygon", "coordinates": [[[-118.87, 44.73], [-118.86, 44.73], [-118.86, 44.74], [-118.87, 44.74], [-118.87, 44.73]]]}}, {"type": "Feature", "properties": {"n": 2, "lode": 2, "acres_min": 20.7, "acres_max": 20.7, "acres_mid": 20.7}, "geometry": {"type": "Polygon", "coordinates": [[[-118.87, 44.74], [-118.86, 44.74], [-118.86, 44.75], [-118.87, 44.75], [-118.87, 44.74]]]}}, {"type": "Feature", "properties": {"n": 2, "lode": 2, "acres_min": 20.7, "acres_max": 20.7, "acres_mid": 20.7}, "geometry": {"type": "Polygon", "coordinates": [[[-118.87, 44.75], [-118.86, 44.75], [-118.86, 44.76], [-118.87, 44.76], [-118.87, 44.75]]]}}, {"type": "Feature", "properties": {"n": 2, "lode": 2, "acres_min": 20.7, "acres_max": 20.7, "acres_mid": 20.7}, "geometry": {"type": "Polygon", "coordinates": [[[-118.86, 44.73], [-118.85, 44.73], [-118.85, 44.74], [-118.86, 44.74], [-118.86, 44.73]]]}}, {"type": "Feature", "properties": {"n": 2, "lode": 2, "acres_min": 20.7, "acres_max": 20.7, "acres_mid": 20.7}, "geometry": {"type": "Polygon", "coordinates": [[[-118.86, 44.74], [-118.85, 44.74], [-118.85, 44.75], [-118.86, 44.75], [-118.86, 44.74]]]}}, {"type": "Feature", "properties": {"n": 2, "lode": 2, "acres_min": 20.7, "acres_max": 20.7, "acres_mid": 20.7}, "geometry": {"type": "Polygon", "coordinates": [[[-118.86, 44.75], [-118.85, 44.75], [-118.85, 44.76], [-118.86, 44.76], [-118.86, 44.75]]]}}, {"type": "Feature", "properties": {"n": 2, "lode": 2, "acres_min": 20.7, "acres_max": 20.7, "acres_mid": 20.7}, "geometry": {"type": "Polygon", "coordinates": [[[-118.85, 44.73], [-118.84, 44.73], [-118.84, 44.74], [-118.85, 44.74], [-118.85, 44.73]]]}}, {"type": "Feature", "properties": {"n": 2, "lode": 2, "acres_min": 20.7, "acres_max": 20.7, "acres_mid": 20.7}, "geometry": {"type": "Polygon", "coordinates": [[[-118.85, 44.74], [-118.84, 44.74], [-118.84, 44.75], [-118.85, 44.75], [-118.85, 44.74]]]}}, {"type": "Feature", "properties": {"n": 2, "lode": 2, "acres_min": 20.7, "acres_max": 20.7, "acres_mid": 20.7}, "geometry": {"type": "Polygon", "coordinates": [[[-118.85, 44.75], [-118.84, 44.75], [-118.84, 44.76], [-118.85, 44.76], [-118.85, 44.75]]]}}, {"type": "Feature", "properties": {"n": 2, "lode": 2, "acres_min": 20.7, "acres_max": 20.7, "acres_mid": 20.7}, "geometry": {"type": "Polygon", "coordinates": [[[-118.84, 44.73], [-118.83, 44.73], [-118.83, 44.74], [-118.84, 44.74], [-118.84, 44.73]]]}}, {"type": "Feature", "properties": {"n": 2, "lode": 2, "acres_min": 20.7, "acres_max": 20.7, "acres_mid": 20.7}, "geometry": {"type": "Polygon", "coordinates": [[[-118.84, 44.74], [-118.83, 44.74], [-118.83, 44.75], [-118.84, 44.75], [-118.84, 44.74]]]}}, {"type": "Feature", "properties": {"n": 2, "lode": 2, "acres_min": 20.7, "acres_max": 20.7, "acres_mid": 20.7}, "geometry": {"type": "Polygon", "coordinates": [[[-118.84, 44.75], [-118.83, 44.75], [-118.83, 44.76], [-118.84, 44.76], [-118.84, 44.75]]]}}, {"type": "Feature", "properties": {"n": 2, "lode": 2, "acres_min": 20.7, "acres_max": 20.7, "acres_mid": 20.7}, "geometry": {"type": "Polygon", "coordinates": [[[-118.83, 44.73], [-118.82, 44.73], [-118.82, 44.74], [-118.83, 44.74], [-118.83, 44.73]]]}}, {"type": "Feature", "properties": {"n": 2, "lode": 2, "acres_min": 20.7, "acres_max": 20.7, "acres_mid": 20.7}, "geometry": {"type": "Polygon", "coordinates": [[[-118.83, 44.74], [-118.82, 44.74], [-118.82, 44.75], [-118.83, 44.75], [-118.83, 44.74]]]}}, {"type": "Feature", "properties": {"n": 2, "lode": 2, "acres_min": 20.7, "acres_max": 20.7, "acres_mid": 20.7}, "geometry": {"type": "Polygon", "coordinates": [[[-118.83, 44.75], [-118.82, 44.75], [-118.82, 44.76], [-118.83, 44.76], [-118.83, 44.75]]]}}, {"type": "Feature", "properties": {"n": 6, "lode": 3, "placer": 3, "acres_min": 8.3, "acres_max": 20.7, "acres_mid": 20.0}, "geometry": {"type": "Polygon", "coordinates": [[[-118.82, 44.73], [-118.81, 44.73], [-118.81, 44.74], [-118.82, 44.74], [-118.82, 44.73]]]}}, {"type": "Feature", "properties": {"n": 3, "lode": 3, "acres_min": 8.3, "acres_max": 20.7, "acres_mid": 20.7}, "geometry": {"type": "Polygon", "coordinates": [[[-118.82, 44.74], [-118.81, 44.74], [-118.81, 44.75], [-118.82, 44.75], [-118.82, 44.74]]]}}, {"type": "Feature", "properties": {"n": 2, "lode": 2, "acres_min": 20.7, "acres_max": 20.7, "acres_mid": 20.7}, "geometry": {"type": "Polygon", "coordinates": [[[-118.82, 44.75], [-118.81, 44.75], [-118.81, 44.76], [-118.82, 44.76], [-118.82, 44.75]]]}}, {"type": "Feature", "properties": {"n": 7, "lode": 4, "placer": 3, "acres_min": 8.3, "acres_max": 20.7, "acres_mid": 20.0}, "geometry": {"type": "Polygon", "coordinates": [[[-118.81, 44.73], [-118.8, 44.73], [-118.8, 44.74], [-118.81, 44.74], [-118.81, 44.73]]]}}, {"type": "Feature", "properties": {"n": 4, "lode": 4, "acres_min": 8.3, "acres_max": 20.7, "acres_mid": 20.7}, "geometry": {"type": "Polygon", "coordinates": [[[-118.81, 44.74], [-118.8, 44.74], [-118.8, 44.75], [-118.81, 44.75], [-118.81, 44.74]]]}}, {"type": "Feature", "properties": {"n": 2, "lode": 2, "acres_min": 20.7, "acres_max": 20.7, "acres_mid": 20.7}, "geometry": {"type": "Polygon", "coordinates": [[[-118.81, 44.75], [-118.8, 44.75], [-118.8, 44.76], [-118.81, 44.76], [-118.81, 44.75]]]}}, {"type": "Feature", "properties": {"n": 5, "lode": 4, "placer": 1, "acres_min": 8.3, "acres_max": 20.7, "acres_mid": 20.7}, "geometry": {"type": "Polygon", "coordinates": [[[-118.8, 44.73], [-118.79, 44.73], [-118.79, 44.74], [-118.8, 44.74], [-118.8, 44.73]]]}}, {"type": "Feature", "properties": {"n": 4, "lode": 4, "acres_min": 8.3, "acres_max": 20.7, "acres_mid": 20.7}, "geometry": {"type": "Polygon", "coordinates": [[[-118.8, 44.74], [-118.79, 44.74], [-118.79, 44.75], [-118.8, 44.75], [-118.8, 44.74]]]}}, {"type": "Feature", "properties": {"n": 2, "lode": 2, "acres_min": 20.7, "acres_max": 20.7, "acres_mid": 20.7}, "geometry": {"type": "Polygon", "coordinates": [[[-118.8, 44.75], [-118.79, 44.75], [-118.79, 44.76], [-118.8, 44.76], [-118.8, 44.75]]]}}, {"type": "Feature", "properties": {"n": 4, "placer": 4, "acres_min": 20.0, "acres_max": 640.0, "acres_mid": 20.0}, "geometry": {"type": "Polygon", "coordinates": [[[-118.84, 44.77], [-118.83, 44.77], [-118.83, 44.78], [-118.84, 44.78], [-118.84, 44.77]]]}}, {"type": "Feature", "properties": {"n": 5, "placer": 5, "acres_min": 20.0, "acres_max": 640.0, "acres_mid": 20.0}, "geometry": {"type": "Polygon", "coordinates": [[[-118.83, 44.77], [-118.82, 44.77], [-118.82, 44.78], [-118.83, 44.78], [-118.83, 44.77]]]}}, {"type": "Feature", "properties": {"n": 1, "placer": 1, "acres_min": 40.0, "acres_max": 40.0, "acres_mid": 40.0}, "geometry": {"type": "Polygon", "coordinates": [[[-118.79, 44.76], [-118.78, 44.76], [-118.78, 44.77], [-118.79, 44.77], [-118.79, 44.76]]]}}, {"type": "Feature", "properties": {"n": 1, "placer": 1, "acres_min": 40.0, "acres_max": 40.0, "acres_mid": 40.0}, "geometry": {"type": "Polygon", "coordinates": [[[-118.79, 44.77], [-118.78, 44.77], [-118.78, 44.78], [-118.79, 44.78], [-118.79, 44.77]]]}}, {"type": "Feature", "properties": {"n": 1, "placer": 1, "acres_min": 40.0, "acres_max": 40.0, "acres_mid": 40.0}, "geometry": {"type": "Polygon", "coordinates": [[[-118.78, 44.76], [-118.77, 44.76], [-118.77, 44.77], [-118.78, 44.77], [-118.78, 44.76]]]}}, {"type": "Feature", "properties": {"n": 1, "placer": 1, "acres_min": 40.0, "acres_max": 40.0, "acres_mid": 40.0}, "geometry": {"type": "Polygon", "coordinates": [[[-118.78, 44.77], [-118.77, 44.77], [-118.77, 44.78], [-118.78, 44.78], [-118.78, 44.77]]]}}, {"type": "Feature", "properties": {"n": 1, "placer": 1, "acres_min": 640.0, "acres_max": 640.0, "acres_mid": 640.0}, "geometry": {"type": "Polygon", "coordinates": [[[-118.84, 44.76], [-118.83, 44.76], [-118.83, 44.77], [-118.84, 44.77], [-118.84, 44.76]]]}}, {"type": "Feature", "properties": {"n": 1, "placer": 1, "acres_min": 640.0, "acres_max": 640.0, "acres_mid": 640.0}, "geometry": {"type": "Polygon", "coordinates": [[[-118.83, 44.76], [-118.82, 44.76], [-118.82, 44.77], [-118.83, 44.77], [-118.83, 44.76]]]}}, {"type": "Feature", "properties": {"n": 1, "placer": 1, "acres_min": 640.0, "acres_max": 640.0, "acres_mid": 640.0}, "geometry": {"type": "Polygon", "coordinates": [[[-118.82, 44.76], [-118.81, 44.76], [-118.81, 44.77], [-118.82, 44.77], [-118.82, 44.76]]]}}, {"type": "Feature", "properties": {"n": 1, "placer": 1, "acres_min": 640.0, "acres_max": 640.0, "acres_mid": 640.0}, "geometry": {"type": "Polygon", "coordinates": [[[-118.82, 44.77], [-118.81, 44.77], [-118.81, 44.78], [-118.82, 44.78], [-118.82, 44.77]]]}}, {"type": "Feature", "properties": {"n": 1, "lode": 1, "acres_min": 15.5, "acres_max": 15.5, "acres_mid": 15.5}, "geometry": {"type": "Polygon", "coordinates": [[[-120.39, 44.43], [-120.38, 44.43], [-120.38, 44.44], [-120.39, 44.44], [-120.39, 44.43]]]}}, {"type": "Feature", "properties": {"n": 1, "lode": 1, "acres_min": 15.5, "acres_max": 15.5, "acres_mid": 15.5}, "geometry": {"type": "Polygon", "coordinates": [[[-120.39, 44.44], [-120.38, 44.44], [-120.38, 44.45], [-120.39, 44.45], [-120.39, 44.44]]]}}, {"type": "Feature", "properties": {"n": 1, "lode": 1, "acres_min": 15.5, "acres_max": 15.5, "acres_mid": 15.5}, "geometry": {"type": "Polygon", "coordinates": [[[-120.39, 44.45], [-120.38, 44.45], [-120.38, 44.46], [-120.39, 44.46], [-120.39, 44.45]]]}}, {"type": "Feature", "properties": {"n": 1, "lode": 1, "acres_min": 15.5, "acres_max": 15.5, "acres_mid": 15.5}, "geometry": {"type": "Polygon", "coordinates": [[[-120.38, 44.43], [-120.37, 44.43], [-120.37, 44.44], [-120.38, 44.44], [-120.38, 44.43]]]}}, {"type": "Feature", "properties": {"n": 1, "lode": 1, "acres_min": 15.5, "acres_max": 15.5, "acres_mid": 15.5}, "geometry": {"type": "Polygon", "coordinates": [[[-120.38, 44.44], [-120.37, 44.44], [-120.37, 44.45], [-120.38, 44.45], [-120.38, 44.44]]]}}, {"type": "Feature", "properties": {"n": 1, "lode": 1, "acres_min": 15.5, "acres_max": 15.5, "acres_mid": 15.5}, "geometry": {"type": "Polygon", "coordinates": [[[-120.38, 44.45], [-120.37, 44.45], [-120.37, 44.46], [-120.38, 44.46], [-120.38, 44.45]]]}}, {"type": "Feature", "properties": {"n": 1, "lode": 1, "acres_min": 15.5, "acres_max": 15.5, "acres_mid": 15.5}, "geometry": {"type": "Polygon", "coordinates": [[[-120.37, 44.43], [-120.36, 44.43], [-120.36, 44.44], [-120.37, 44.44], [-120.37, 44.43]]]}}, {"type": "Feature", "properties": {"n": 1, "lode": 1, "acres_min": 15.5, "acres_max": 15.5, "acres_mid": 15.5}, "geometry": {"type": "Polygon", "coordinates": [[[-120.37, 44.44], [-120.36, 44.44], [-120.36, 44.45], [-120.37, 44.45], [-120.37, 44.44]]]}}, {"type": "Feature", "properties": {"n": 1, "lode": 1, "acres_min": 15.5, "acres_max": 15.5, "acres_mid": 15.5}, "geometry": {"type": "Polygon", "coordinates": [[[-120.37, 44.45], [-120.36, 44.45], [-120.36, 44.46], [-120.37, 44.46], [-120.37, 44.45]]]}}, {"type": "Feature", "properties": {"n": 5, "lode": 2, "placer": 3, "acres_min": 18.7, "acres_max": 80.0, "acres_mid": 20.0}, "geometry": {"type": "Polygon", "coordinates": [[[-120.38, 44.41], [-120.37, 44.41], [-120.37, 44.42], [-120.38, 44.42], [-120.38, 44.41]]]}}, {"type": "Feature", "properties": {"n": 3, "lode": 2, "placer": 1, "acres_min": 18.7, "acres_max": 80.0, "acres_mid": 20.7}, "geometry": {"type": "Polygon", "coordinates": [[[-120.38, 44.42], [-120.37, 44.42], [-120.37, 44.43], [-120.38, 44.43], [-120.38, 44.42]]]}}, {"type": "Feature", "properties": {"n": 6, "lode": 2, "placer": 4, "acres_min": 18.7, "acres_max": 160.0, "acres_mid": 20.7}, "geometry": {"type": "Polygon", "coordinates": [[[-120.37, 44.41], [-120.36, 44.41], [-120.36, 44.42], [-120.37, 44.42], [-120.37, 44.41]]]}}, {"type": "Feature", "properties": {"n": 3, "lode": 2, "placer": 1, "acres_min": 18.7, "acres_max": 80.0, "acres_mid": 20.7}, "geometry": {"type": "Polygon", "coordinates": [[[-120.37, 44.42], [-120.36, 44.42], [-120.36, 44.43], [-120.37, 44.43], [-120.37, 44.42]]]}}, {"type": "Feature", "properties": {"n": 2, "placer": 2, "acres_min": 20.0, "acres_max": 20.0, "acres_mid": 20.0}, "geometry": {"type": "Polygon", "coordinates": [[[-120.38, 44.4], [-120.37, 44.4], [-120.37, 44.41], [-120.38, 44.41], [-120.38, 44.4]]]}}, {"type": "Feature", "properties": {"n": 3, "placer": 3, "acres_min": 20.0, "acres_max": 160.0, "acres_mid": 20.0}, "geometry": {"type": "Polygon", "coordinates": [[[-120.37, 44.4], [-120.36, 44.4], [-120.36, 44.41], [-120.37, 44.41], [-120.37, 44.4]]]}}, {"type": "Feature", "properties": {"n": 1, "placer": 1, "acres_min": 20.0, "acres_max": 20.0, "acres_mid": 20.0}, "geometry": {"type": "Polygon", "coordinates": [[[-120.43, 44.39], [-120.42, 44.39], [-120.42, 44.4], [-120.43, 44.4], [-120.43, 44.39]]]}}, {"type": "Feature", "properties": {"n": 1, "placer": 1, "acres_min": 20.0, "acres_max": 20.0, "acres_mid": 20.0}, "geometry": {"type": "Polygon", "coordinates": [[[-120.43, 44.4], [-120.42, 44.4], [-120.42, 44.41], [-120.43, 44.41], [-120.43, 44.4]]]}}, {"type": "Feature", "properties": {"n": 1, "placer": 1, "acres_min": 20.0, "acres_max": 20.0, "acres_mid": 20.0}, "geometry": {"type": "Polygon", "coordinates": [[[-120.42, 44.39], [-120.41, 44.39], [-120.41, 44.4], [-120.42, 44.4], [-120.42, 44.39]]]}}, {"type": "Feature", "properties": {"n": 1, "placer": 1, "acres_min": 20.0, "acres_max": 20.0, "acres_mid": 20.0}, "geometry": {"type": "Polygon", "coordinates": [[[-120.42, 44.4], [-120.41, 44.4], [-120.41, 44.41], [-120.42, 44.41], [-120.42, 44.4]]]}}, {"type": "Feature", "properties": {"n": 1, "placer": 1, "acres_min": 20.0, "acres_max": 20.0, "acres_mid": 20.0}, "geometry": {"type": "Polygon", "coordinates": [[[-120.41, 44.39], [-120.4, 44.39], [-120.4, 44.4], [-120.41, 44.4], [-120.41, 44.39]]]}}, {"type": "Feature", "properties": {"n": 1, "placer": 1, "acres_min": 20.0, "acres_max": 20.0, "acres_mid": 20.0}, "geometry": {"type": "Polygon", "coordinates": [[[-120.41, 44.4], [-120.4, 44.4], [-120.4, 44.41], [-120.41, 44.41], [-120.41, 44.4]]]}}, {"type": "Feature", "properties": {"n": 1, "lode": 1, "acres_min": 20.7, "acres_max": 20.7, "acres_mid": 20.7}, "geometry": {"type": "Polygon", "coordinates": [[[-120.36, 44.42], [-120.35, 44.42], [-120.35, 44.43], [-120.36, 44.43], [-120.36, 44.42]]]}}, {"type": "Feature", "properties": {"n": 1, "lode": 1, "acres_min": 20.7, "acres_max": 20.7, "acres_mid": 20.7}, "geometry": {"type": "Polygon", "coordinates": [[[-120.36, 44.43], [-120.35, 44.43], [-120.35, 44.44], [-120.36, 44.44], [-120.36, 44.43]]]}}, {"type": "Feature", "properties": {"n": 1, "lode": 1, "acres_min": 20.7, "acres_max": 20.7, "acres_mid": 20.7}, "geometry": {"type": "Polygon", "coordinates": [[[-120.35, 44.42], [-120.34, 44.42], [-120.34, 44.43], [-120.35, 44.43], [-120.35, 44.42]]]}}, {"type": "Feature", "properties": {"n": 1, "lode": 1, "acres_min": 20.7, "acres_max": 20.7, "acres_mid": 20.7}, "geometry": {"type": "Polygon", "coordinates": [[[-120.35, 44.43], [-120.34, 44.43], [-120.34, 44.44], [-120.35, 44.44], [-120.35, 44.43]]]}}, {"type": "Feature", "properties": {"n": 5, "lode": 4, "placer": 1, "acres_min": 20.0, "acres_max": 570.0, "acres_mid": 20.7}, "geometry": {"type": "Polygon", "coordinates": [[[-118.7, 44.53], [-118.69, 44.53], [-118.69, 44.54], [-118.7, 44.54], [-118.7, 44.53]]]}}, {"type": "Feature", "properties": {"n": 8, "lode": 7, "placer": 1, "acres_min": 20.7, "acres_max": 570.0, "acres_mid": 20.7}, "geometry": {"type": "Polygon", "coordinates": [[[-118.7, 44.54], [-118.69, 44.54], [-118.69, 44.55], [-118.7, 44.55], [-118.7, 44.54]]]}}, {"type": "Feature", "properties": {"n": 3, "lode": 3, "acres_min": 20.7, "acres_max": 570.0, "acres_mid": 20.7}, "geometry": {"type": "Polygon", "coordinates": [[[-118.69, 44.53], [-118.68, 44.53], [-118.68, 44.54], [-118.69, 44.54], [-118.69, 44.53]]]}}, {"type": "Feature", "properties": {"n": 5, "lode": 4, "placer": 1, "acres_min": 20.7, "acres_max": 570.0, "acres_mid": 20.7}, "geometry": {"type": "Polygon", "coordinates": [[[-118.69, 44.54], [-118.68, 44.54], [-118.68, 44.55], [-118.69, 44.55], [-118.69, 44.54]]]}}, {"type": "Feature", "properties": {"n": 5, "lode": 4, "placer": 1, "acres_min": 20.7, "acres_max": 160.0, "acres_mid": 20.7}, "geometry": {"type": "Polygon", "coordinates": [[[-118.71, 44.54], [-118.7, 44.54], [-118.7, 44.55], [-118.71, 44.55], [-118.71, 44.54]]]}}, {"type": "Feature", "properties": {"n": 5, "lode": 3, "placer": 2, "acres_min": 20.7, "acres_max": 160.0, "acres_mid": 20.7}, "geometry": {"type": "Polygon", "coordinates": [[[-118.71, 44.55], [-118.7, 44.55], [-118.7, 44.56], [-118.71, 44.56], [-118.71, 44.55]]]}}, {"type": "Feature", "properties": {"n": 6, "lode": 3, "placer": 3, "acres_min": 20.0, "acres_max": 160.0, "acres_mid": 20.7}, "geometry": {"type": "Polygon", "coordinates": [[[-118.7, 44.55], [-118.69, 44.55], [-118.69, 44.56], [-118.7, 44.56], [-118.7, 44.55]]]}}, {"type": "Feature", "properties": {"n": 2, "lode": 1, "placer": 1, "acres_min": 20.7, "acres_max": 160.0, "acres_mid": 160.0}, "geometry": {"type": "Polygon", "coordinates": [[[-118.69, 44.55], [-118.68, 44.55], [-118.68, 44.56], [-118.69, 44.56], [-118.69, 44.55]]]}}, {"type": "Feature", "properties": {"n": 2, "lode": 2, "acres_min": 20.7, "acres_max": 20.7, "acres_mid": 20.7}, "geometry": {"type": "Polygon", "coordinates": [[[-118.72, 44.52], [-118.71, 44.52], [-118.71, 44.53], [-118.72, 44.53], [-118.72, 44.52]]]}}, {"type": "Feature", "properties": {"n": 2, "lode": 2, "acres_min": 20.7, "acres_max": 20.7, "acres_mid": 20.7}, "geometry": {"type": "Polygon", "coordinates": [[[-118.72, 44.53], [-118.71, 44.53], [-118.71, 44.54], [-118.72, 44.54], [-118.72, 44.53]]]}}, {"type": "Feature", "properties": {"n": 3, "lode": 2, "placer": 1, "acres_min": 20.0, "acres_max": 20.7, "acres_mid": 20.7}, "geometry": {"type": "Polygon", "coordinates": [[[-118.71, 44.52], [-118.7, 44.52], [-118.7, 44.53], [-118.71, 44.53], [-118.71, 44.52]]]}}, {"type": "Feature", "properties": {"n": 4, "lode": 3, "placer": 1, "acres_min": 20.0, "acres_max": 160.0, "acres_mid": 20.7}, "geometry": {"type": "Polygon", "coordinates": [[[-118.71, 44.53], [-118.7, 44.53], [-118.7, 44.54], [-118.71, 44.54], [-118.71, 44.53]]]}}, {"type": "Feature", "properties": {"n": 1, "lode": 1, "acres_min": 160.9, "acres_max": 160.9, "acres_mid": 160.9}, "geometry": {"type": "Polygon", "coordinates": [[[-118.64, 44.55], [-118.63, 44.55], [-118.63, 44.56], [-118.64, 44.56], [-118.64, 44.55]]]}}, {"type": "Feature", "properties": {"n": 1, "lode": 1, "acres_min": 160.9, "acres_max": 160.9, "acres_mid": 160.9}, "geometry": {"type": "Polygon", "coordinates": [[[-118.64, 44.56], [-118.63, 44.56], [-118.63, 44.57], [-118.64, 44.57], [-118.64, 44.56]]]}}, {"type": "Feature", "properties": {"n": 1, "lode": 1, "acres_min": 160.9, "acres_max": 160.9, "acres_mid": 160.9}, "geometry": {"type": "Polygon", "coordinates": [[[-118.63, 44.55], [-118.62, 44.55], [-118.62, 44.56], [-118.63, 44.56], [-118.63, 44.55]]]}}, {"type": "Feature", "properties": {"n": 1, "lode": 1, "acres_min": 160.9, "acres_max": 160.9, "acres_mid": 160.9}, "geometry": {"type": "Polygon", "coordinates": [[[-118.63, 44.56], [-118.62, 44.56], [-118.62, 44.57], [-118.63, 44.57], [-118.63, 44.56]]]}}, {"type": "Feature", "properties": {"n": 2, "placer": 2, "acres_min": 80.0, "acres_max": 80.0, "acres_mid": 80.0}, "geometry": {"type": "Polygon", "coordinates": [[[-118.57, 44.56], [-118.56, 44.56], [-118.56, 44.57], [-118.57, 44.57], [-118.57, 44.56]]]}}, {"type": "Feature", "properties": {"n": 2, "placer": 2, "acres_min": 80.0, "acres_max": 80.0, "acres_mid": 80.0}, "geometry": {"type": "Polygon", "coordinates": [[[-118.57, 44.57], [-118.56, 44.57], [-118.56, 44.58], [-118.57, 44.58], [-118.57, 44.57]]]}}, {"type": "Feature", "properties": {"n": 1, "placer": 1, "acres_min": 80.0, "acres_max": 80.0, "acres_mid": 80.0}, "geometry": {"type": "Polygon", "coordinates": [[[-118.56, 44.56], [-118.55, 44.56], [-118.55, 44.57], [-118.56, 44.57], [-118.56, 44.56]]]}}, {"type": "Feature", "properties": {"n": 1, "placer": 1, "acres_min": 80.0, "acres_max": 80.0, "acres_mid": 80.0}, "geometry": {"type": "Polygon", "coordinates": [[[-118.56, 44.57], [-118.55, 44.57], [-118.55, 44.58], [-118.56, 44.58], [-118.56, 44.57]]]}}, {"type": "Feature", "properties": {"n": 1, "placer": 1, "acres_min": 60.0, "acres_max": 60.0, "acres_mid": 60.0}, "geometry": {"type": "Polygon", "coordinates": [[[-118.6, 44.57], [-118.59, 44.57], [-118.59, 44.58], [-118.6, 44.58], [-118.6, 44.57]]]}}, {"type": "Feature", "properties": {"n": 1, "placer": 1, "acres_min": 60.0, "acres_max": 60.0, "acres_mid": 60.0}, "geometry": {"type": "Polygon", "coordinates": [[[-118.6, 44.58], [-118.59, 44.58], [-118.59, 44.59], [-118.6, 44.59], [-118.6, 44.58]]]}}, {"type": "Feature", "properties": {"n": 2, "placer": 2, "acres_min": 60.0, "acres_max": 80.0, "acres_mid": 80.0}, "geometry": {"type": "Polygon", "coordinates": [[[-118.59, 44.57], [-118.58, 44.57], [-118.58, 44.58], [-118.59, 44.58], [-118.59, 44.57]]]}}, {"type": "Feature", "properties": {"n": 1, "placer": 1, "acres_min": 60.0, "acres_max": 60.0, "acres_mid": 60.0}, "geometry": {"type": "Polygon", "coordinates": [[[-118.59, 44.58], [-118.58, 44.58], [-118.58, 44.59], [-118.59, 44.59], [-118.59, 44.58]]]}}, {"type": "Feature", "properties": {"n": 2, "placer": 2, "acres_min": 60.0, "acres_max": 80.0, "acres_mid": 80.0}, "geometry": {"type": "Polygon", "coordinates": [[[-118.58, 44.57], [-118.57, 44.57], [-118.57, 44.58], [-118.58, 44.58], [-118.58, 44.57]]]}}, {"type": "Feature", "properties": {"n": 1, "placer": 1, "acres_min": 60.0, "acres_max": 60.0, "acres_mid": 60.0}, "geometry": {"type": "Polygon", "coordinates": [[[-118.58, 44.58], [-118.57, 44.58], [-118.57, 44.59], [-118.58, 44.59], [-118.58, 44.58]]]}}, {"type": "Feature", "properties": {"n": 1, "placer": 1, "acres_min": 80.0, "acres_max": 80.0, "acres_mid": 80.0}, "geometry": {"type": "Polygon", "coordinates": [[[-118.59, 44.56], [-118.58, 44.56], [-118.58, 44.57], [-118.59, 44.57], [-118.59, 44.56]]]}}, {"type": "Feature", "properties": {"n": 1, "placer": 1, "acres_min": 80.0, "acres_max": 80.0, "acres_mid": 80.0}, "geometry": {"type": "Polygon", "coordinates": [[[-118.58, 44.56], [-118.57, 44.56], [-118.57, 44.57], [-118.58, 44.57], [-118.58, 44.56]]]}}, {"type": "Feature", "properties": {"n": 1, "placer": 1, "acres_min": 20.0, "acres_max": 20.0, "acres_mid": 20.0}, "geometry": {"type": "Polygon", "coordinates": [[[-118.7, 44.52], [-118.69, 44.52], [-118.69, 44.53], [-118.7, 44.53], [-118.7, 44.52]]]}}, {"type": "Feature", "properties": {"n": 2, "placer": 2, "acres_min": 20.0, "acres_max": 56.6, "acres_mid": 56.6}, "geometry": {"type": "Polygon", "coordinates": [[[-118.7, 44.56], [-118.69, 44.56], [-118.69, 44.57], [-118.7, 44.57], [-118.7, 44.56]]]}}, {"type": "Feature", "properties": {"n": 1, "placer": 1, "acres_min": 56.6, "acres_max": 56.6, "acres_mid": 56.6}, "geometry": {"type": "Polygon", "coordinates": [[[-118.71, 44.56], [-118.7, 44.56], [-118.7, 44.57], [-118.71, 44.57], [-118.71, 44.56]]]}}, {"type": "Feature", "properties": {"n": 1, "placer": 1, "acres_min": 20.0, "acres_max": 20.0, "acres_mid": 20.0}, "geometry": {"type": "Polygon", "coordinates": [[[-118.55, 44.61], [-118.54, 44.61], [-118.54, 44.62], [-118.55, 44.62], [-118.55, 44.61]]]}}, {"type": "Feature", "properties": {"n": 1, "placer": 1, "acres_min": 20.0, "acres_max": 20.0, "acres_mid": 20.0}, "geometry": {"type": "Polygon", "coordinates": [[[-118.54, 44.61], [-118.53, 44.61], [-118.53, 44.62], [-118.54, 44.62], [-118.54, 44.61]]]}}, {"type": "Feature", "properties": {"n": 2, "placer": 2, "acres_min": 20.0, "acres_max": 39.9, "acres_mid": 39.9}, "geometry": {"type": "Polygon", "coordinates": [[[-119.17, 44.55], [-119.16, 44.55], [-119.16, 44.56], [-119.17, 44.56], [-119.17, 44.55]]]}}, {"type": "Feature", "properties": {"n": 2, "placer": 2, "acres_min": 20.0, "acres_max": 39.9, "acres_mid": 39.9}, "geometry": {"type": "Polygon", "coordinates": [[[-119.17, 44.56], [-119.16, 44.56], [-119.16, 44.57], [-119.17, 44.57], [-119.17, 44.56]]]}}, {"type": "Feature", "properties": {"n": 1, "placer": 1, "acres_min": 20.0, "acres_max": 20.0, "acres_mid": 20.0}, "geometry": {"type": "Polygon", "coordinates": [[[-119.16, 44.55], [-119.15, 44.55], [-119.15, 44.56], [-119.16, 44.56], [-119.16, 44.55]]]}}, {"type": "Feature", "properties": {"n": 1, "placer": 1, "acres_min": 20.0, "acres_max": 20.0, "acres_mid": 20.0}, "geometry": {"type": "Polygon", "coordinates": [[[-119.16, 44.56], [-119.15, 44.56], [-119.15, 44.57], [-119.16, 44.57], [-119.16, 44.56]]]}}, {"type": "Feature", "properties": {"n": 6, "lode": 6, "acres_min": 20.7, "acres_max": 20.7, "acres_mid": 20.7}, "geometry": {"type": "Polygon", "coordinates": [[[-118.81, 44.71], [-118.8, 44.71], [-118.8, 44.72], [-118.81, 44.72], [-118.81, 44.71]]]}}, {"type": "Feature", "properties": {"n": 5, "lode": 2, "placer": 3, "acres_min": 19.5, "acres_max": 20.7, "acres_mid": 20.0}, "geometry": {"type": "Polygon", "coordinates": [[[-118.81, 44.72], [-118.8, 44.72], [-118.8, 44.73], [-118.81, 44.73], [-118.81, 44.72]]]}}, {"type": "Feature", "properties": {"n": 13, "lode": 13, "acres_min": 20.7, "acres_max": 20.7, "acres_mid": 20.7}, "geometry": {"type": "Polygon", "coordinates": [[[-118.8, 44.71], [-118.79, 44.71], [-118.79, 44.72], [-118.8, 44.72], [-118.8, 44.71]]]}}, {"type": "Feature", "properties": {"n": 9, "lode": 8, "placer": 1, "acres_min": 20.0, "acres_max": 20.7, "acres_mid": 20.7}, "geometry": {"type": "Polygon", "coordinates": [[[-118.8, 44.72], [-118.79, 44.72], [-118.79, 44.73], [-118.8, 44.73], [-118.8, 44.72]]]}}, {"type": "Feature", "properties": {"n": 5, "lode": 5, "acres_min": 20.7, "acres_max": 20.7, "acres_mid": 20.7}, "geometry": {"type": "Polygon", "coordinates": [[[-118.81, 44.7], [-118.8, 44.7], [-118.8, 44.71], [-118.81, 44.71], [-118.81, 44.7]]]}}, {"type": "Feature", "properties": {"n": 7, "lode": 7, "acres_min": 20.7, "acres_max": 20.7, "acres_mid": 20.7}, "geometry": {"type": "Polygon", "coordinates": [[[-118.8, 44.7], [-118.79, 44.7], [-118.79, 44.71], [-118.8, 44.71], [-118.8, 44.7]]]}}, {"type": "Feature", "properties": {"n": 4, "lode": 4, "acres_min": 20.7, "acres_max": 20.7, "acres_mid": 20.7}, "geometry": {"type": "Polygon", "coordinates": [[[-118.79, 44.7], [-118.78, 44.7], [-118.78, 44.71], [-118.79, 44.71], [-118.79, 44.7]]]}}, {"type": "Feature", "properties": {"n": 9, "lode": 9, "acres_min": 20.7, "acres_max": 20.7, "acres_mid": 20.7}, "geometry": {"type": "Polygon", "coordinates": [[[-118.79, 44.71], [-118.78, 44.71], [-118.78, 44.72], [-118.79, 44.72], [-118.79, 44.71]]]}}, {"type": "Feature", "properties": {"n": 1, "lode": 1, "acres_min": 12.4, "acres_max": 12.4, "acres_mid": 12.4}, "geometry": {"type": "Polygon", "coordinates": [[[-118.81, 44.66], [-118.8, 44.66], [-118.8, 44.67], [-118.81, 44.67], [-118.81, 44.66]]]}}, {"type": "Feature", "properties": {"n": 1, "lode": 1, "acres_min": 12.4, "acres_max": 12.4, "acres_mid": 12.4}, "geometry": {"type": "Polygon", "coordinates": [[[-118.81, 44.67], [-118.8, 44.67], [-118.8, 44.68], [-118.81, 44.68], [-118.81, 44.67]]]}}, {"type": "Feature", "properties": {"n": 1, "lode": 1, "acres_min": 12.4, "acres_max": 12.4, "acres_mid": 12.4}, "geometry": {"type": "Polygon", "coordinates": [[[-118.8, 44.66], [-118.79, 44.66], [-118.79, 44.67], [-118.8, 44.67], [-118.8, 44.66]]]}}, {"type": "Feature", "properties": {"n": 1, "lode": 1, "acres_min": 12.4, "acres_max": 12.4, "acres_mid": 12.4}, "geometry": {"type": "Polygon", "coordinates": [[[-118.8, 44.67], [-118.79, 44.67], [-118.79, 44.68], [-118.8, 44.68], [-118.8, 44.67]]]}}, {"type": "Feature", "properties": {"n": 6, "lode": 6, "acres_min": 20.7, "acres_max": 20.7, "acres_mid": 20.7}, "geometry": {"type": "Polygon", "coordinates": [[[-118.79, 44.72], [-118.78, 44.72], [-118.78, 44.73], [-118.79, 44.73], [-118.79, 44.72]]]}}, {"type": "Feature", "properties": {"n": 2, "placer": 2, "acres_min": 20.0, "acres_max": 20.0, "acres_mid": 20.0}, "geometry": {"type": "Polygon", "coordinates": [[[-118.78, 44.72], [-118.77, 44.72], [-118.77, 44.73], [-118.78, 44.73], [-118.78, 44.72]]]}}, {"type": "Feature", "properties": {"n": 2, "placer": 2, "acres_min": 20.0, "acres_max": 20.0, "acres_mid": 20.0}, "geometry": {"type": "Polygon", "coordinates": [[[-118.77, 44.72], [-118.76, 44.72], [-118.76, 44.73], [-118.77, 44.73], [-118.77, 44.72]]]}}, {"type": "Feature", "properties": {"n": 1, "placer": 1, "acres_min": 20.0, "acres_max": 20.0, "acres_mid": 20.0}, "geometry": {"type": "Polygon", "coordinates": [[[-118.83, 44.72], [-118.82, 44.72], [-118.82, 44.73], [-118.83, 44.73], [-118.83, 44.72]]]}}, {"type": "Feature", "properties": {"n": 5, "lode": 1, "placer": 4, "acres_min": 19.5, "acres_max": 20.7, "acres_mid": 20.0}, "geometry": {"type": "Polygon", "coordinates": [[[-118.82, 44.72], [-118.81, 44.72], [-118.81, 44.73], [-118.82, 44.73], [-118.82, 44.72]]]}}, {"type": "Feature", "properties": {"n": 1, "placer": 1, "acres_min": 20.0, "acres_max": 20.0, "acres_mid": 20.0}, "geometry": {"type": "Polygon", "coordinates": [[[-118.82, 44.64], [-118.81, 44.64], [-118.81, 44.65], [-118.82, 44.65], [-118.82, 44.64]]]}}, {"type": "Feature", "properties": {"n": 1, "placer": 1, "acres_min": 20.0, "acres_max": 20.0, "acres_mid": 20.0}, "geometry": {"type": "Polygon", "coordinates": [[[-118.82, 44.65], [-118.81, 44.65], [-118.81, 44.66], [-118.82, 44.66], [-118.82, 44.65]]]}}, {"type": "Feature", "properties": {"n": 1, "placer": 1, "acres_min": 20.0, "acres_max": 20.0, "acres_mid": 20.0}, "geometry": {"type": "Polygon", "coordinates": [[[-118.81, 44.64], [-118.8, 44.64], [-118.8, 44.65], [-118.81, 44.65], [-118.81, 44.64]]]}}, {"type": "Feature", "properties": {"n": 1, "placer": 1, "acres_min": 20.0, "acres_max": 20.0, "acres_mid": 20.0}, "geometry": {"type": "Polygon", "coordinates": [[[-118.81, 44.65], [-118.8, 44.65], [-118.8, 44.66], [-118.81, 44.66], [-118.81, 44.65]]]}}, {"type": "Feature", "properties": {"n": 1, "lode": 1, "acres_min": 20.7, "acres_max": 20.7, "acres_mid": 20.7}, "geometry": {"type": "Polygon", "coordinates": [[[-118.82, 44.7], [-118.81, 44.7], [-118.81, 44.71], [-118.82, 44.71], [-118.82, 44.7]]]}}, {"type": "Feature", "properties": {"n": 1, "lode": 1, "acres_min": 20.7, "acres_max": 20.7, "acres_mid": 20.7}, "geometry": {"type": "Polygon", "coordinates": [[[-118.82, 44.71], [-118.81, 44.71], [-118.81, 44.72], [-118.82, 44.72], [-118.82, 44.71]]]}}, {"type": "Feature", "properties": {"n": 1, "placer": 1, "acres_min": 20.0, "acres_max": 20.0, "acres_mid": 20.0}, "geometry": {"type": "Polygon", "coordinates": [[[-118.77, 44.73], [-118.76, 44.73], [-118.76, 44.74], [-118.77, 44.74], [-118.77, 44.73]]]}}, {"type": "Feature", "properties": {"n": 1, "placer": 1, "acres_min": 20.0, "acres_max": 20.0, "acres_mid": 20.0}, "geometry": {"type": "Polygon", "coordinates": [[[-118.77, 44.74], [-118.76, 44.74], [-118.76, 44.75], [-118.77, 44.75], [-118.77, 44.74]]]}}, {"type": "Feature", "properties": {"n": 3, "placer": 3, "acres_min": 20.0, "acres_max": 20.0, "acres_mid": 20.0}, "geometry": {"type": "Polygon", "coordinates": [[[-118.76, 44.73], [-118.75, 44.73], [-118.75, 44.74], [-118.76, 44.74], [-118.76, 44.73]]]}}, {"type": "Feature", "properties": {"n": 2, "placer": 2, "acres_min": 20.0, "acres_max": 20.0, "acres_mid": 20.0}, "geometry": {"type": "Polygon", "coordinates": [[[-118.76, 44.74], [-118.75, 44.74], [-118.75, 44.75], [-118.76, 44.75], [-118.76, 44.74]]]}}, {"type": "Feature", "properties": {"n": 2, "placer": 2, "acres_min": 20.0, "acres_max": 20.0, "acres_mid": 20.0}, "geometry": {"type": "Polygon", "coordinates": [[[-118.75, 44.73], [-118.74, 44.73], [-118.74, 44.74], [-118.75, 44.74], [-118.75, 44.73]]]}}, {"type": "Feature", "properties": {"n": 1, "placer": 1, "acres_min": 20.0, "acres_max": 20.0, "acres_mid": 20.0}, "geometry": {"type": "Polygon", "coordinates": [[[-118.75, 44.74], [-118.74, 44.74], [-118.74, 44.75], [-118.75, 44.75], [-118.75, 44.74]]]}}, {"type": "Feature", "properties": {"n": 1, "placer": 1, "acres_min": 20.0, "acres_max": 20.0, "acres_mid": 20.0}, "geometry": {"type": "Polygon", "coordinates": [[[-118.76, 44.72], [-118.75, 44.72], [-118.75, 44.73], [-118.76, 44.73], [-118.76, 44.72]]]}}, {"type": "Feature", "properties": {"n": 1, "placer": 1, "acres_min": 20.0, "acres_max": 20.0, "acres_mid": 20.0}, "geometry": {"type": "Polygon", "coordinates": [[[-118.75, 44.72], [-118.74, 44.72], [-118.74, 44.73], [-118.75, 44.73], [-118.75, 44.72]]]}}, {"type": "Feature", "properties": {"n": 1, "placer": 1, "acres_min": 40.0, "acres_max": 40.0, "acres_mid": 40.0}, "geometry": {"type": "Polygon", "coordinates": [[[-119.05, 43.97], [-119.04, 43.97], [-119.04, 43.98], [-119.05, 43.98], [-119.05, 43.97]]]}}, {"type": "Feature", "properties": {"n": 1, "placer": 1, "acres_min": 40.0, "acres_max": 40.0, "acres_mid": 40.0}, "geometry": {"type": "Polygon", "coordinates": [[[-119.05, 43.98], [-119.04, 43.98], [-119.04, 43.99], [-119.05, 43.99], [-119.05, 43.98]]]}}, {"type": "Feature", "properties": {"n": 1, "placer": 1, "acres_min": 40.0, "acres_max": 40.0, "acres_mid": 40.0}, "geometry": {"type": "Polygon", "coordinates": [[[-119.04, 43.97], [-119.03, 43.97], [-119.03, 43.98], [-119.04, 43.98], [-119.04, 43.97]]]}}, {"type": "Feature", "properties": {"n": 1, "placer": 1, "acres_min": 40.0, "acres_max": 40.0, "acres_mid": 40.0}, "geometry": {"type": "Polygon", "coordinates": [[[-119.04, 43.98], [-119.03, 43.98], [-119.03, 43.99], [-119.04, 43.99], [-119.04, 43.98]]]}}, {"type": "Feature", "properties": {"n": 8, "lode": 8, "acres_min": 4.1, "acres_max": 20.7, "acres_mid": 20.7}, "geometry": {"type": "Polygon", "coordinates": [[[-119.54, 43.85], [-119.53, 43.85], [-119.53, 43.86], [-119.54, 43.86], [-119.54, 43.85]]]}}, {"type": "Feature", "properties": {"n": 6, "lode": 6, "acres_min": 4.1, "acres_max": 20.7, "acres_mid": 20.7}, "geometry": {"type": "Polygon", "coordinates": [[[-119.54, 43.86], [-119.53, 43.86], [-119.53, 43.87], [-119.54, 43.87], [-119.54, 43.86]]]}}, {"type": "Feature", "properties": {"n": 11, "lode": 11, "acres_min": 4.1, "acres_max": 20.7, "acres_mid": 20.7}, "geometry": {"type": "Polygon", "coordinates": [[[-119.53, 43.85], [-119.52, 43.85], [-119.52, 43.86], [-119.53, 43.86], [-119.53, 43.85]]]}}, {"type": "Feature", "properties": {"n": 9, "lode": 9, "acres_min": 4.1, "acres_max": 20.7, "acres_mid": 20.7}, "geometry": {"type": "Polygon", "coordinates": [[[-119.53, 43.86], [-119.52, 43.86], [-119.52, 43.87], [-119.53, 43.87], [-119.53, 43.86]]]}}, {"type": "Feature", "properties": {"n": 5, "lode": 5, "acres_min": 20.7, "acres_max": 20.7, "acres_mid": 20.7}, "geometry": {"type": "Polygon", "coordinates": [[[-119.52, 43.85], [-119.51, 43.85], [-119.51, 43.86], [-119.52, 43.86], [-119.52, 43.85]]]}}, {"type": "Feature", "properties": {"n": 4, "lode": 4, "acres_min": 20.7, "acres_max": 20.7, "acres_mid": 20.7}, "geometry": {"type": "Polygon", "coordinates": [[[-119.52, 43.86], [-119.51, 43.86], [-119.51, 43.87], [-119.52, 43.87], [-119.52, 43.86]]]}}, {"type": "Feature", "properties": {"n": 11, "lode": 11, "acres_min": 20.7, "acres_max": 20.7, "acres_mid": 20.7}, "geometry": {"type": "Polygon", "coordinates": [[[-119.89, 42.72], [-119.88, 42.72], [-119.88, 42.73], [-119.89, 42.73], [-119.89, 42.72]]]}}, {"type": "Feature", "properties": {"n": 14, "lode": 14, "acres_min": 20.7, "acres_max": 20.7, "acres_mid": 20.7}, "geometry": {"type": "Polygon", "coordinates": [[[-119.89, 42.73], [-119.88, 42.73], [-119.88, 42.74], [-119.89, 42.74], [-119.89, 42.73]]]}}, {"type": "Feature", "properties": {"n": 9, "lode": 9, "acres_min": 20.7, "acres_max": 20.7, "acres_mid": 20.7}, "geometry": {"type": "Polygon", "coordinates": [[[-119.88, 42.72], [-119.87, 42.72], [-119.87, 42.73], [-119.88, 42.73], [-119.88, 42.72]]]}}, {"type": "Feature", "properties": {"n": 14, "lode": 14, "acres_min": 20.7, "acres_max": 20.7, "acres_mid": 20.7}, "geometry": {"type": "Polygon", "coordinates": [[[-119.88, 42.73], [-119.87, 42.73], [-119.87, 42.74], [-119.88, 42.74], [-119.88, 42.73]]]}}, {"type": "Feature", "properties": {"n": 25, "lode": 22, "placer": 3, "acres_min": 4.6, "acres_max": 20.7, "acres_mid": 20.7}, "geometry": {"type": "Polygon", "coordinates": [[[-119.87, 42.71], [-119.86, 42.71], [-119.86, 42.72], [-119.87, 42.72], [-119.87, 42.71]]]}}, {"type": "Feature", "properties": {"n": 32, "lode": 30, "placer": 2, "acres_min": 4.6, "acres_max": 20.7, "acres_mid": 20.7}, "geometry": {"type": "Polygon", "coordinates": [[[-119.86, 42.71], [-119.85, 42.71], [-119.85, 42.72], [-119.86, 42.72], [-119.86, 42.71]]]}}, {"type": "Feature", "properties": {"n": 46, "lode": 46, "acres_min": 10.3, "acres_max": 1282.0, "acres_mid": 20.7}, "geometry": {"type": "Polygon", "coordinates": [[[-119.81, 42.71], [-119.8, 42.71], [-119.8, 42.72], [-119.81, 42.72], [-119.81, 42.71]]]}}, {"type": "Feature", "properties": {"n": 34, "lode": 34, "acres_min": 14.3, "acres_max": 640.0, "acres_mid": 20.7}, "geometry": {"type": "Polygon", "coordinates": [[[-119.81, 42.72], [-119.8, 42.72], [-119.8, 42.73], [-119.81, 42.73], [-119.81, 42.72]]]}}, {"type": "Feature", "properties": {"n": 23, "lode": 19, "placer": 4, "acres_min": 18.2, "acres_max": 640.0, "acres_mid": 20.7}, "geometry": {"type": "Polygon", "coordinates": [[[-119.81, 42.73], [-119.8, 42.73], [-119.8, 42.74], [-119.81, 42.74], [-119.81, 42.73]]]}}, {"type": "Feature", "properties": {"n": 13, "lode": 13, "acres_min": 19.9, "acres_max": 640.0, "acres_mid": 20.7}, "geometry": {"type": "Polygon", "coordinates": [[[-119.8, 42.71], [-119.79, 42.71], [-119.79, 42.72], [-119.8, 42.72], [-119.8, 42.71]]]}}, {"type": "Feature", "properties": {"n": 13, "lode": 13, "acres_min": 19.9, "acres_max": 640.0, "acres_mid": 20.7}, "geometry": {"type": "Polygon", "coordinates": [[[-119.8, 42.72], [-119.79, 42.72], [-119.79, 42.73], [-119.8, 42.73], [-119.8, 42.72]]]}}, {"type": "Feature", "properties": {"n": 7, "lode": 7, "acres_min": 20.7, "acres_max": 640.0, "acres_mid": 20.7}, "geometry": {"type": "Polygon", "coordinates": [[[-119.8, 42.73], [-119.79, 42.73], [-119.79, 42.74], [-119.8, 42.74], [-119.8, 42.73]]]}}, {"type": "Feature", "properties": {"n": 2, "lode": 2, "acres_min": 20.7, "acres_max": 640.0, "acres_mid": 640.0}, "geometry": {"type": "Polygon", "coordinates": [[[-119.79, 42.71], [-119.78, 42.71], [-119.78, 42.72], [-119.79, 42.72], [-119.79, 42.71]]]}}, {"type": "Feature", "properties": {"n": 2, "lode": 2, "acres_min": 20.7, "acres_max": 640.0, "acres_mid": 640.0}, "geometry": {"type": "Polygon", "coordinates": [[[-119.79, 42.72], [-119.78, 42.72], [-119.78, 42.73], [-119.79, 42.73], [-119.79, 42.72]]]}}, {"type": "Feature", "properties": {"n": 1, "lode": 1, "acres_min": 640.0, "acres_max": 640.0, "acres_mid": 640.0}, "geometry": {"type": "Polygon", "coordinates": [[[-119.79, 42.73], [-119.78, 42.73], [-119.78, 42.74], [-119.79, 42.74], [-119.79, 42.73]]]}}, {"type": "Feature", "properties": {"n": 69, "lode": 68, "placer": 1, "acres_min": 3.1, "acres_max": 1282.0, "acres_mid": 20.7}, "geometry": {"type": "Polygon", "coordinates": [[[-119.85, 42.7], [-119.84, 42.7], [-119.84, 42.71], [-119.85, 42.71], [-119.85, 42.7]]]}}, {"type": "Feature", "properties": {"n": 40, "lode": 40, "acres_min": 3.1, "acres_max": 1282.0, "acres_mid": 20.7}, "geometry": {"type": "Polygon", "coordinates": [[[-119.85, 42.71], [-119.84, 42.71], [-119.84, 42.72], [-119.85, 42.72], [-119.85, 42.71]]]}}, {"type": "Feature", "properties": {"n": 45, "lode": 42, "placer": 3, "acres_min": 3.1, "acres_max": 1282.0, "acres_mid": 20.7}, "geometry": {"type": "Polygon", "coordinates": [[[-119.84, 42.7], [-119.83, 42.7], [-119.83, 42.71], [-119.84, 42.71], [-119.84, 42.7]]]}}, {"type": "Feature", "properties": {"n": 42, "lode": 40, "placer": 2, "acres_min": 3.1, "acres_max": 1282.0, "acres_mid": 20.7}, "geometry": {"type": "Polygon", "coordinates": [[[-119.84, 42.71], [-119.83, 42.71], [-119.83, 42.72], [-119.84, 42.72], [-119.84, 42.71]]]}}, {"type": "Feature", "properties": {"n": 37, "lode": 36, "placer": 1, "acres_min": 14.3, "acres_max": 160.0, "acres_mid": 20.7}, "geometry": {"type": "Polygon", "coordinates": [[[-119.82, 42.72], [-119.81, 42.72], [-119.81, 42.73], [-119.82, 42.73], [-119.82, 42.72]]]}}, {"type": "Feature", "properties": {"n": 34, "lode": 26, "placer": 8, "acres_min": 18.2, "acres_max": 160.0, "acres_mid": 20.7}, "geometry": {"type": "Polygon", "coordinates": [[[-119.82, 42.73], [-119.81, 42.73], [-119.81, 42.74], [-119.82, 42.74], [-119.82, 42.73]]]}}, {"type": "Feature", "properties": {"n": 52, "lode": 46, "placer": 6, "acres_min": 3.1, "acres_max": 1282.0, "acres_mid": 20.7}, "geometry": {"type": "Polygon", "coordinates": [[[-119.83, 42.71], [-119.82, 42.71], [-119.82, 42.72], [-119.83, 42.72], [-119.83, 42.71]]]}}, {"type": "Feature", "properties": {"n": 36, "lode": 35, "placer": 1, "acres_min": 10.7, "acres_max": 160.0, "acres_mid": 20.7}, "geometry": {"type": "Polygon", "coordinates": [[[-119.83, 42.72], [-119.82, 42.72], [-119.82, 42.73], [-119.83, 42.73], [-119.83, 42.72]]]}}, {"type": "Feature", "properties": {"n": 48, "lode": 44, "placer": 4, "acres_min": 10.3, "acres_max": 1282.0, "acres_mid": 20.7}, "geometry": {"type": "Polygon", "coordinates": [[[-119.82, 42.71], [-119.81, 42.71], [-119.81, 42.72], [-119.82, 42.72], [-119.82, 42.71]]]}}, {"type": "Feature", "properties": {"n": 24, "lode": 12, "placer": 12, "acres_min": 5.0, "acres_max": 20.7, "acres_mid": 20.0}, "geometry": {"type": "Polygon", "coordinates": [[[-119.88, 42.7], [-119.87, 42.7], [-119.87, 42.71], [-119.88, 42.71], [-119.88, 42.7]]]}}, {"type": "Feature", "properties": {"n": 12, "lode": 10, "placer": 2, "acres_min": 5.0, "acres_max": 20.7, "acres_mid": 20.7}, "geometry": {"type": "Polygon", "coordinates": [[[-119.88, 42.71], [-119.87, 42.71], [-119.87, 42.72], [-119.88, 42.72], [-119.88, 42.71]]]}}, {"type": "Feature", "properties": {"n": 44, "lode": 31, "placer": 13, "acres_min": 4.6, "acres_max": 20.7, "acres_mid": 20.0}, "geometry": {"type": "Polygon", "coordinates": [[[-119.87, 42.7], [-119.86, 42.7], [-119.86, 42.71], [-119.87, 42.71], [-119.87, 42.7]]]}}, {"type": "Feature", "properties": {"n": 23, "lode": 23, "acres_min": 10.7, "acres_max": 160.0, "acres_mid": 20.7}, "geometry": {"type": "Polygon", "coordinates": [[[-119.84, 42.72], [-119.83, 42.72], [-119.83, 42.73], [-119.84, 42.73], [-119.84, 42.72]]]}}, {"type": "Feature", "properties": {"n": 33, "lode": 33, "acres_min": 6.9, "acres_max": 160.0, "acres_mid": 20.7}, "geometry": {"type": "Polygon", "coordinates": [[[-119.84, 42.73], [-119.83, 42.73], [-119.83, 42.74], [-119.84, 42.74], [-119.84, 42.73]]]}}, {"type": "Feature", "properties": {"n": 47, "lode": 43, "placer": 4, "acres_min": 6.9, "acres_max": 160.0, "acres_mid": 20.7}, "geometry": {"type": "Polygon", "coordinates": [[[-119.83, 42.73], [-119.82, 42.73], [-119.82, 42.74], [-119.83, 42.74], [-119.83, 42.73]]]}}, {"type": "Feature", "properties": {"n": 54, "lode": 50, "placer": 4, "acres_min": 4.6, "acres_max": 20.7, "acres_mid": 20.7}, "geometry": {"type": "Polygon", "coordinates": [[[-119.86, 42.7], [-119.85, 42.7], [-119.85, 42.71], [-119.86, 42.71], [-119.86, 42.7]]]}}, {"type": "Feature", "properties": {"n": 21, "lode": 21, "acres_min": 20.7, "acres_max": 20.7, "acres_mid": 20.7}, "geometry": {"type": "Polygon", "coordinates": [[[-119.88, 42.74], [-119.87, 42.74], [-119.87, 42.75], [-119.88, 42.75], [-119.88, 42.74]]]}}, {"type": "Feature", "properties": {"n": 25, "lode": 25, "acres_min": 20.7, "acres_max": 20.7, "acres_mid": 20.7}, "geometry": {"type": "Polygon", "coordinates": [[[-119.88, 42.75], [-119.87, 42.75], [-119.87, 42.76], [-119.88, 42.76], [-119.88, 42.75]]]}}, {"type": "Feature", "properties": {"n": 11, "lode": 8, "placer": 3, "acres_min": 20.0, "acres_max": 20.7, "acres_mid": 20.7}, "geometry": {"type": "Polygon", "coordinates": [[[-119.87, 42.74], [-119.86, 42.74], [-119.86, 42.75], [-119.87, 42.75], [-119.87, 42.74]]]}}, {"type": "Feature", "properties": {"n": 15, "lode": 12, "placer": 3, "acres_min": 20.0, "acres_max": 20.7, "acres_mid": 20.7}, "geometry": {"type": "Polygon", "coordinates": [[[-119.87, 42.75], [-119.86, 42.75], [-119.86, 42.76], [-119.87, 42.76], [-119.87, 42.75]]]}}, {"type": "Feature", "properties": {"n": 27, "lode": 25, "placer": 2, "acres_min": 3.1, "acres_max": 1282.0, "acres_mid": 20.7}, "geometry": {"type": "Polygon", "coordinates": [[[-119.83, 42.7], [-119.82, 42.7], [-119.82, 42.71], [-119.83, 42.71], [-119.83, 42.7]]]}}, {"type": "Feature", "properties": {"n": 4, "lode": 4, "acres_min": 20.7, "acres_max": 20.7, "acres_mid": 20.7}, "geometry": {"type": "Polygon", "coordinates": [[[-119.87, 42.68], [-119.86, 42.68], [-119.86, 42.69], [-119.87, 42.69], [-119.87, 42.68]]]}}, {"type": "Feature", "properties": {"n": 10, "lode": 6, "placer": 4, "acres_min": 18.2, "acres_max": 20.7, "acres_mid": 20.0}, "geometry": {"type": "Polygon", "coordinates": [[[-119.87, 42.69], [-119.86, 42.69], [-119.86, 42.7], [-119.87, 42.7], [-119.87, 42.69]]]}}, {"type": "Feature", "properties": {"n": 4, "lode": 4, "acres_min": 20.7, "acres_max": 20.7, "acres_mid": 20.7}, "geometry": {"type": "Polygon", "coordinates": [[[-119.86, 42.68], [-119.85, 42.68], [-119.85, 42.69], [-119.86, 42.69], [-119.86, 42.68]]]}}, {"type": "Feature", "properties": {"n": 9, "lode": 9, "acres_min": 5.0, "acres_max": 20.7, "acres_mid": 20.7}, "geometry": {"type": "Polygon", "coordinates": [[[-119.86, 42.69], [-119.85, 42.69], [-119.85, 42.7], [-119.86, 42.7], [-119.86, 42.69]]]}}, {"type": "Feature", "properties": {"n": 3, "lode": 3, "acres_min": 20.7, "acres_max": 20.7, "acres_mid": 20.7}, "geometry": {"type": "Polygon", "coordinates": [[[-119.85, 42.68], [-119.84, 42.68], [-119.84, 42.69], [-119.85, 42.69], [-119.85, 42.68]]]}}, {"type": "Feature", "properties": {"n": 9, "lode": 8, "placer": 1, "acres_min": 5.0, "acres_max": 20.7, "acres_mid": 20.0}, "geometry": {"type": "Polygon", "coordinates": [[[-119.85, 42.69], [-119.84, 42.69], [-119.84, 42.7], [-119.85, 42.7], [-119.85, 42.69]]]}}, {"type": "Feature", "properties": {"n": 10, "lode": 10, "acres_min": 6.9, "acres_max": 20.7, "acres_mid": 20.7}, "geometry": {"type": "Polygon", "coordinates": [[[-119.84, 42.74], [-119.83, 42.74], [-119.83, 42.75], [-119.84, 42.75], [-119.84, 42.74]]]}}, {"type": "Feature", "properties": {"n": 20, "lode": 10, "placer": 10, "acres_min": 6.9, "acres_max": 80.0, "acres_mid": 20.7}, "geometry": {"type": "Polygon", "coordinates": [[[-119.83, 42.74], [-119.82, 42.74], [-119.82, 42.75], [-119.83, 42.75], [-119.83, 42.74]]]}}, {"type": "Feature", "properties": {"n": 18, "lode": 2, "placer": 16, "acres_min": 20.0, "acres_max": 80.0, "acres_mid": 20.7}, "geometry": {"type": "Polygon", "coordinates": [[[-119.82, 42.74], [-119.81, 42.74], [-119.81, 42.75], [-119.82, 42.75], [-119.82, 42.74]]]}}, {"type": "Feature", "properties": {"n": 8, "lode": 8, "acres_min": 20.7, "acres_max": 20.7, "acres_mid": 20.7}, "geometry": {"type": "Polygon", "coordinates": [[[-119.88, 42.76], [-119.87, 42.76], [-119.87, 42.77], [-119.88, 42.77], [-119.88, 42.76]]]}}, {"type": "Feature", "properties": {"n": 4, "lode": 4, "acres_min": 20.7, "acres_max": 20.7, "acres_mid": 20.7}, "geometry": {"type": "Polygon", "coordinates": [[[-119.87, 42.76], [-119.86, 42.76], [-119.86, 42.77], [-119.87, 42.77], [-119.87, 42.76]]]}}, {"type": "Feature", "properties": {"n": 15, "lode": 15, "acres_min": 12.4, "acres_max": 1282.0, "acres_mid": 20.7}, "geometry": {"type": "Polygon", "coordinates": [[[-119.82, 42.7], [-119.81, 42.7], [-119.81, 42.71], [-119.82, 42.71], [-119.82, 42.7]]]}}, {"type": "Feature", "properties": {"n": 14, "lode": 14, "acres_min": 12.4, "acres_max": 1282.0, "acres_mid": 20.7}, "geometry": {"type": "Polygon", "coordinates": [[[-119.81, 42.7], [-119.8, 42.7], [-119.8, 42.71], [-119.81, 42.71], [-119.81, 42.7]]]}}, {"type": "Feature", "properties": {"n": 2, "lode": 2, "acres_min": 20.7, "acres_max": 20.7, "acres_mid": 20.7}, "geometry": {"type": "Polygon", "coordinates": [[[-119.8, 42.7], [-119.79, 42.7], [-119.79, 42.71], [-119.8, 42.71], [-119.8, 42.7]]]}}, {"type": "Feature", "properties": {"n": 6, "lode": 6, "acres_min": 20.7, "acres_max": 20.7, "acres_mid": 20.7}, "geometry": {"type": "Polygon", "coordinates": [[[-119.9, 42.73], [-119.89, 42.73], [-119.89, 42.74], [-119.9, 42.74], [-119.9, 42.73]]]}}, {"type": "Feature", "properties": {"n": 7, "lode": 7, "acres_min": 20.7, "acres_max": 20.7, "acres_mid": 20.7}, "geometry": {"type": "Polygon", "coordinates": [[[-119.9, 42.72], [-119.89, 42.72], [-119.89, 42.73], [-119.9, 42.73], [-119.9, 42.72]]]}}, {"type": "Feature", "properties": {"n": 3, "lode": 3, "acres_min": 20.7, "acres_max": 20.7, "acres_mid": 20.7}, "geometry": {"type": "Polygon", "coordinates": [[[-119.9, 42.71], [-119.89, 42.71], [-119.89, 42.72], [-119.9, 42.72], [-119.9, 42.71]]]}}, {"type": "Feature", "properties": {"n": 5, "lode": 5, "acres_min": 20.7, "acres_max": 20.7, "acres_mid": 20.7}, "geometry": {"type": "Polygon", "coordinates": [[[-119.89, 42.71], [-119.88, 42.71], [-119.88, 42.72], [-119.89, 42.72], [-119.89, 42.71]]]}}, {"type": "Feature", "properties": {"n": 13, "lode": 13, "acres_min": 20.7, "acres_max": 20.7, "acres_mid": 20.7}, "geometry": {"type": "Polygon", "coordinates": [[[-119.89, 42.74], [-119.88, 42.74], [-119.88, 42.75], [-119.89, 42.75], [-119.89, 42.74]]]}}, {"type": "Feature", "properties": {"n": 13, "lode": 13, "acres_min": 20.7, "acres_max": 20.7, "acres_mid": 20.7}, "geometry": {"type": "Polygon", "coordinates": [[[-119.89, 42.75], [-119.88, 42.75], [-119.88, 42.76], [-119.89, 42.76], [-119.89, 42.75]]]}}, {"type": "Feature", "properties": {"n": 4, "lode": 4, "acres_min": 20.7, "acres_max": 20.7, "acres_mid": 20.7}, "geometry": {"type": "Polygon", "coordinates": [[[-119.89, 42.76], [-119.88, 42.76], [-119.88, 42.77], [-119.89, 42.77], [-119.89, 42.76]]]}}, {"type": "Feature", "properties": {"n": 1, "lode": 1, "acres_min": 20.7, "acres_max": 20.7, "acres_mid": 20.7}, "geometry": {"type": "Polygon", "coordinates": [[[-119.9, 42.74], [-119.89, 42.74], [-119.89, 42.75], [-119.9, 42.75], [-119.9, 42.74]]]}}, {"type": "Feature", "properties": {"n": 5, "lode": 5, "acres_min": 20.7, "acres_max": 20.7, "acres_mid": 20.7}, "geometry": {"type": "Polygon", "coordinates": [[[-119.87, 42.72], [-119.86, 42.72], [-119.86, 42.73], [-119.87, 42.73], [-119.87, 42.72]]]}}, {"type": "Feature", "properties": {"n": 5, "lode": 5, "acres_min": 20.7, "acres_max": 20.7, "acres_mid": 20.7}, "geometry": {"type": "Polygon", "coordinates": [[[-119.87, 42.73], [-119.86, 42.73], [-119.86, 42.74], [-119.87, 42.74], [-119.87, 42.73]]]}}, {"type": "Feature", "properties": {"n": 2, "lode": 2, "acres_min": 20.7, "acres_max": 20.7, "acres_mid": 20.7}, "geometry": {"type": "Polygon", "coordinates": [[[-119.86, 42.72], [-119.85, 42.72], [-119.85, 42.73], [-119.86, 42.73], [-119.86, 42.72]]]}}, {"type": "Feature", "properties": {"n": 2, "lode": 2, "acres_min": 20.7, "acres_max": 20.7, "acres_mid": 20.7}, "geometry": {"type": "Polygon", "coordinates": [[[-119.86, 42.73], [-119.85, 42.73], [-119.85, 42.74], [-119.86, 42.74], [-119.86, 42.73]]]}}, {"type": "Feature", "properties": {"n": 4, "lode": 2, "placer": 2, "acres_min": 20.0, "acres_max": 20.7, "acres_mid": 20.7}, "geometry": {"type": "Polygon", "coordinates": [[[-119.89, 42.7], [-119.88, 42.7], [-119.88, 42.71], [-119.89, 42.71], [-119.89, 42.7]]]}}, {"type": "Feature", "properties": {"n": 4, "placer": 4, "acres_min": 20.0, "acres_max": 20.0, "acres_mid": 20.0}, "geometry": {"type": "Polygon", "coordinates": [[[-119.88, 42.69], [-119.87, 42.69], [-119.87, 42.7], [-119.88, 42.7], [-119.88, 42.69]]]}}, {"type": "Feature", "properties": {"n": 8, "placer": 8, "acres_min": 20.0, "acres_max": 20.8, "acres_mid": 20.7}, "geometry": {"type": "Polygon", "coordinates": [[[-119.83, 42.75], [-119.82, 42.75], [-119.82, 42.76], [-119.83, 42.76], [-119.83, 42.75]]]}}, {"type": "Feature", "properties": {"n": 12, "placer": 12, "acres_min": 20.0, "acres_max": 20.8, "acres_mid": 20.0}, "geometry": {"type": "Polygon", "coordinates": [[[-119.82, 42.75], [-119.81, 42.75], [-119.81, 42.76], [-119.82, 42.76], [-119.82, 42.75]]]}}, {"type": "Feature", "properties": {"n": 7, "lode": 1, "placer": 6, "acres_min": 20.0, "acres_max": 80.0, "acres_mid": 20.0}, "geometry": {"type": "Polygon", "coordinates": [[[-119.81, 42.74], [-119.8, 42.74], [-119.8, 42.75], [-119.81, 42.75], [-119.81, 42.74]]]}}, {"type": "Feature", "properties": {"n": 4, "placer": 4, "acres_min": 20.0, "acres_max": 20.0, "acres_mid": 20.0}, "geometry": {"type": "Polygon", "coordinates": [[[-119.81, 42.75], [-119.8, 42.75], [-119.8, 42.76], [-119.81, 42.76], [-119.81, 42.75]]]}}, {"type": "Feature", "properties": {"n": 4, "placer": 4, "acres_min": 20.0, "acres_max": 20.0, "acres_mid": 20.0}, "geometry": {"type": "Polygon", "coordinates": [[[-119.86, 42.74], [-119.85, 42.74], [-119.85, 42.75], [-119.86, 42.75], [-119.86, 42.74]]]}}, {"type": "Feature", "properties": {"n": 4, "placer": 4, "acres_min": 20.0, "acres_max": 20.0, "acres_mid": 20.0}, "geometry": {"type": "Polygon", "coordinates": [[[-119.86, 42.75], [-119.85, 42.75], [-119.85, 42.76], [-119.86, 42.76], [-119.86, 42.75]]]}}, {"type": "Feature", "properties": {"n": 1, "placer": 1, "acres_min": 20.0, "acres_max": 20.0, "acres_mid": 20.0}, "geometry": {"type": "Polygon", "coordinates": [[[-119.85, 42.74], [-119.84, 42.74], [-119.84, 42.75], [-119.85, 42.75], [-119.85, 42.74]]]}}, {"type": "Feature", "properties": {"n": 1, "placer": 1, "acres_min": 20.0, "acres_max": 20.0, "acres_mid": 20.0}, "geometry": {"type": "Polygon", "coordinates": [[[-119.85, 42.75], [-119.84, 42.75], [-119.84, 42.76], [-119.85, 42.76], [-119.85, 42.75]]]}}, {"type": "Feature", "properties": {"n": 2, "lode": 1, "placer": 1, "acres_min": 20.0, "acres_max": 20.7, "acres_mid": 20.7}, "geometry": {"type": "Polygon", "coordinates": [[[-119.84, 42.69], [-119.83, 42.69], [-119.83, 42.7], [-119.84, 42.7], [-119.84, 42.69]]]}}, {"type": "Feature", "properties": {"n": 1, "lode": 1, "acres_min": 20.7, "acres_max": 20.7, "acres_mid": 20.7}, "geometry": {"type": "Polygon", "coordinates": [[[-119.83, 42.69], [-119.82, 42.69], [-119.82, 42.7], [-119.83, 42.7], [-119.83, 42.69]]]}}, {"type": "Feature", "properties": {"n": 1, "lode": 1, "acres_min": 20.7, "acres_max": 20.7, "acres_mid": 20.7}, "geometry": {"type": "Polygon", "coordinates": [[[-119.8, 42.74], [-119.79, 42.74], [-119.79, 42.75], [-119.8, 42.75], [-119.8, 42.74]]]}}, {"type": "Feature", "properties": {"n": 6, "lode": 6, "acres_min": 20.7, "acres_max": 20.7, "acres_mid": 20.7}, "geometry": {"type": "Polygon", "coordinates": [[[-119.9, 42.83], [-119.89, 42.83], [-119.89, 42.84], [-119.9, 42.84], [-119.9, 42.83]]]}}, {"type": "Feature", "properties": {"n": 2, "lode": 2, "acres_min": 20.7, "acres_max": 20.7, "acres_mid": 20.7}, "geometry": {"type": "Polygon", "coordinates": [[[-119.9, 42.84], [-119.89, 42.84], [-119.89, 42.85], [-119.9, 42.85], [-119.9, 42.84]]]}}, {"type": "Feature", "properties": {"n": 3, "lode": 3, "acres_min": 20.7, "acres_max": 20.7, "acres_mid": 20.7}, "geometry": {"type": "Polygon", "coordinates": [[[-119.89, 42.83], [-119.88, 42.83], [-119.88, 42.84], [-119.89, 42.84], [-119.89, 42.83]]]}}, {"type": "Feature", "properties": {"n": 2, "lode": 2, "acres_min": 20.7, "acres_max": 20.7, "acres_mid": 20.7}, "geometry": {"type": "Polygon", "coordinates": [[[-119.89, 42.84], [-119.88, 42.84], [-119.88, 42.85], [-119.89, 42.85], [-119.89, 42.84]]]}}, {"type": "Feature", "properties": {"n": 6, "lode": 6, "acres_min": 20.7, "acres_max": 20.7, "acres_mid": 20.7}, "geometry": {"type": "Polygon", "coordinates": [[[-119.91, 42.82], [-119.9, 42.82], [-119.9, 42.83], [-119.91, 42.83], [-119.91, 42.82]]]}}, {"type": "Feature", "properties": {"n": 10, "lode": 10, "acres_min": 20.7, "acres_max": 20.7, "acres_mid": 20.7}, "geometry": {"type": "Polygon", "coordinates": [[[-119.9, 42.82], [-119.89, 42.82], [-119.89, 42.83], [-119.9, 42.83], [-119.9, 42.82]]]}}, {"type": "Feature", "properties": {"n": 4, "lode": 4, "acres_min": 20.7, "acres_max": 20.7, "acres_mid": 20.7}, "geometry": {"type": "Polygon", "coordinates": [[[-119.89, 42.82], [-119.88, 42.82], [-119.88, 42.83], [-119.89, 42.83], [-119.89, 42.82]]]}}, {"type": "Feature", "properties": {"n": 2, "lode": 2, "acres_min": 20.7, "acres_max": 20.7, "acres_mid": 20.7}, "geometry": {"type": "Polygon", "coordinates": [[[-119.91, 42.83], [-119.9, 42.83], [-119.9, 42.84], [-119.91, 42.84], [-119.91, 42.83]]]}}, {"type": "Feature", "properties": {"n": 8, "lode": 7, "placer": 1, "acres_min": 11.0, "acres_max": 1087.5, "acres_mid": 20.7}, "geometry": {"type": "Polygon", "coordinates": [[[-118.94, 44.36], [-118.93, 44.36], [-118.93, 44.37], [-118.94, 44.37], [-118.94, 44.36]]]}}, {"type": "Feature", "properties": {"n": 17, "lode": 12, "placer": 4, "tunnel": 1, "acres_min": 5.0, "acres_max": 1087.5, "acres_mid": 20.7}, "geometry": {"type": "Polygon", "coordinates": [[[-118.94, 44.37], [-118.93, 44.37], [-118.93, 44.38], [-118.94, 44.38], [-118.94, 44.37]]]}}, {"type": "Feature", "properties": {"n": 7, "lode": 6, "placer": 1, "acres_min": 11.0, "acres_max": 1087.5, "acres_mid": 20.7}, "geometry": {"type": "Polygon", "coordinates": [[[-118.93, 44.36], [-118.92, 44.36], [-118.92, 44.37], [-118.93, 44.37], [-118.93, 44.36]]]}}, {"type": "Feature", "properties": {"n": 16, "lode": 10, "placer": 5, "tunnel": 1, "acres_min": 5.0, "acres_max": 1087.5, "acres_mid": 20.7}, "geometry": {"type": "Polygon", "coordinates": [[[-118.93, 44.37], [-118.92, 44.37], [-118.92, 44.38], [-118.93, 44.38], [-118.93, 44.37]]]}}, {"type": "Feature", "properties": {"n": 2, "lode": 2, "acres_min": 20.7, "acres_max": 1087.5, "acres_mid": 1087.5}, "geometry": {"type": "Polygon", "coordinates": [[[-118.92, 44.36], [-118.91, 44.36], [-118.91, 44.37], [-118.92, 44.37], [-118.92, 44.36]]]}}, {"type": "Feature", "properties": {"n": 6, "lode": 2, "placer": 4, "acres_min": 20.0, "acres_max": 1087.5, "acres_mid": 40.0}, "geometry": {"type": "Polygon", "coordinates": [[[-118.92, 44.37], [-118.91, 44.37], [-118.91, 44.38], [-118.92, 44.38], [-118.92, 44.37]]]}}, {"type": "Feature", "properties": {"n": 5, "lode": 4, "tunnel": 1, "acres_min": 5.0, "acres_max": 20.7, "acres_mid": 20.7}, "geometry": {"type": "Polygon", "coordinates": [[[-118.95, 44.37], [-118.94, 44.37], [-118.94, 44.38], [-118.95, 44.38], [-118.95, 44.37]]]}}, {"type": "Feature", "properties": {"n": 5, "lode": 4, "tunnel": 1, "acres_min": 5.0, "acres_max": 20.7, "acres_mid": 20.7}, "geometry": {"type": "Polygon", "coordinates": [[[-118.95, 44.38], [-118.94, 44.38], [-118.94, 44.39], [-118.95, 44.39], [-118.95, 44.38]]]}}, {"type": "Feature", "properties": {"n": 10, "lode": 5, "placer": 4, "tunnel": 1, "acres_min": 5.0, "acres_max": 50.0, "acres_mid": 20.7}, "geometry": {"type": "Polygon", "coordinates": [[[-118.94, 44.38], [-118.93, 44.38], [-118.93, 44.39], [-118.94, 44.39], [-118.94, 44.38]]]}}, {"type": "Feature", "properties": {"n": 13, "lode": 3, "placer": 9, "tunnel": 1, "acres_min": 5.0, "acres_max": 50.0, "acres_mid": 20.0}, "geometry": {"type": "Polygon", "coordinates": [[[-118.93, 44.38], [-118.92, 44.38], [-118.92, 44.39], [-118.93, 44.39], [-118.93, 44.38]]]}}, {"type": "Feature", "properties": {"n": 1, "lode": 1, "acres_min": 3.0, "acres_max": 3.0, "acres_mid": 3.0}, "geometry": {"type": "Polygon", "coordinates": [[[-118.94, 44.34], [-118.93, 44.34], [-118.93, 44.35], [-118.94, 44.35], [-118.94, 44.34]]]}}, {"type": "Feature", "properties": {"n": 1, "lode": 1, "acres_min": 3.0, "acres_max": 3.0, "acres_mid": 3.0}, "geometry": {"type": "Polygon", "coordinates": [[[-118.94, 44.35], [-118.93, 44.35], [-118.93, 44.36], [-118.94, 44.36], [-118.94, 44.35]]]}}, {"type": "Feature", "properties": {"n": 1, "lode": 1, "acres_min": 3.0, "acres_max": 3.0, "acres_mid": 3.0}, "geometry": {"type": "Polygon", "coordinates": [[[-118.93, 44.34], [-118.92, 44.34], [-118.92, 44.35], [-118.93, 44.35], [-118.93, 44.34]]]}}, {"type": "Feature", "properties": {"n": 1, "lode": 1, "acres_min": 3.0, "acres_max": 3.0, "acres_mid": 3.0}, "geometry": {"type": "Polygon", "coordinates": [[[-118.93, 44.35], [-118.92, 44.35], [-118.92, 44.36], [-118.93, 44.36], [-118.93, 44.35]]]}}, {"type": "Feature", "properties": {"n": 1, "lode": 1, "acres_min": 3.0, "acres_max": 3.0, "acres_mid": 3.0}, "geometry": {"type": "Polygon", "coordinates": [[[-118.92, 44.34], [-118.91, 44.34], [-118.91, 44.35], [-118.92, 44.35], [-118.92, 44.34]]]}}, {"type": "Feature", "properties": {"n": 1, "lode": 1, "acres_min": 3.0, "acres_max": 3.0, "acres_mid": 3.0}, "geometry": {"type": "Polygon", "coordinates": [[[-118.92, 44.35], [-118.91, 44.35], [-118.91, 44.36], [-118.92, 44.36], [-118.92, 44.35]]]}}, {"type": "Feature", "properties": {"n": 1, "lode": 1, "acres_min": 20.7, "acres_max": 20.7, "acres_mid": 20.7}, "geometry": {"type": "Polygon", "coordinates": [[[-118.75, 44.36], [-118.74, 44.36], [-118.74, 44.37], [-118.75, 44.37], [-118.75, 44.36]]]}}, {"type": "Feature", "properties": {"n": 1, "lode": 1, "acres_min": 20.7, "acres_max": 20.7, "acres_mid": 20.7}, "geometry": {"type": "Polygon", "coordinates": [[[-118.75, 44.37], [-118.74, 44.37], [-118.74, 44.38], [-118.75, 44.38], [-118.75, 44.37]]]}}, {"type": "Feature", "properties": {"n": 1, "lode": 1, "acres_min": 20.7, "acres_max": 20.7, "acres_mid": 20.7}, "geometry": {"type": "Polygon", "coordinates": [[[-118.74, 44.36], [-118.73, 44.36], [-118.73, 44.37], [-118.74, 44.37], [-118.74, 44.36]]]}}, {"type": "Feature", "properties": {"n": 1, "lode": 1, "acres_min": 20.7, "acres_max": 20.7, "acres_mid": 20.7}, "geometry": {"type": "Polygon", "coordinates": [[[-118.74, 44.37], [-118.73, 44.37], [-118.73, 44.38], [-118.74, 44.38], [-118.74, 44.37]]]}}, {"type": "Feature", "properties": {"n": 2, "lode": 1, "placer": 1, "acres_min": 20.7, "acres_max": 40.0, "acres_mid": 40.0}, "geometry": {"type": "Polygon", "coordinates": [[[-118.96, 44.35], [-118.95, 44.35], [-118.95, 44.36], [-118.96, 44.36], [-118.96, 44.35]]]}}, {"type": "Feature", "properties": {"n": 2, "lode": 1, "placer": 1, "acres_min": 20.7, "acres_max": 40.0, "acres_mid": 40.0}, "geometry": {"type": "Polygon", "coordinates": [[[-118.96, 44.36], [-118.95, 44.36], [-118.95, 44.37], [-118.96, 44.37], [-118.96, 44.36]]]}}, {"type": "Feature", "properties": {"n": 1, "lode": 1, "acres_min": 20.7, "acres_max": 20.7, "acres_mid": 20.7}, "geometry": {"type": "Polygon", "coordinates": [[[-118.95, 44.35], [-118.94, 44.35], [-118.94, 44.36], [-118.95, 44.36], [-118.95, 44.35]]]}}, {"type": "Feature", "properties": {"n": 1, "lode": 1, "acres_min": 20.7, "acres_max": 20.7, "acres_mid": 20.7}, "geometry": {"type": "Polygon", "coordinates": [[[-118.95, 44.36], [-118.94, 44.36], [-118.94, 44.37], [-118.95, 44.37], [-118.95, 44.36]]]}}, {"type": "Feature", "properties": {"n": 8, "placer": 8, "acres_min": 12.0, "acres_max": 50.0, "acres_mid": 20.0}, "geometry": {"type": "Polygon", "coordinates": [[[-118.92, 44.38], [-118.91, 44.38], [-118.91, 44.39], [-118.92, 44.39], [-118.92, 44.38]]]}}, {"type": "Feature", "properties": {"n": 1, "placer": 1, "acres_min": 40.0, "acres_max": 40.0, "acres_mid": 40.0}, "geometry": {"type": "Polygon", "coordinates": [[[-118.98, 44.35], [-118.97, 44.35], [-118.97, 44.36], [-118.98, 44.36], [-118.98, 44.35]]]}}, {"type": "Feature", "properties": {"n": 1, "placer": 1, "acres_min": 40.0, "acres_max": 40.0, "acres_mid": 40.0}, "geometry": {"type": "Polygon", "coordinates": [[[-118.98, 44.36], [-118.97, 44.36], [-118.97, 44.37], [-118.98, 44.37], [-118.98, 44.36]]]}}, {"type": "Feature", "properties": {"n": 1, "placer": 1, "acres_min": 40.0, "acres_max": 40.0, "acres_mid": 40.0}, "geometry": {"type": "Polygon", "coordinates": [[[-118.97, 44.35], [-118.96, 44.35], [-118.96, 44.36], [-118.97, 44.36], [-118.97, 44.35]]]}}, {"type": "Feature", "properties": {"n": 1, "placer": 1, "acres_min": 40.0, "acres_max": 40.0, "acres_mid": 40.0}, "geometry": {"type": "Polygon", "coordinates": [[[-118.97, 44.36], [-118.96, 44.36], [-118.96, 44.37], [-118.97, 44.37], [-118.97, 44.36]]]}}]}